#aV2009  7 23  0  0   .00000000      96 DD+AD WGS84 FIT  NGA
## 1541 345600.00000000   900.00000000 55035  .0000000000000
+   31     1  2  3  4  6  7  8  9 10 11 12 13 14 15 16 17 18
+         19 20 21 22 23 24 25 26 27 28 29 30 31 32  0  0  0
+          0  0  0  0  0  0  0  0  0  0  0  0  0  0  0  0  0
+          0  0  0  0  0  0  0  0  0  0  0  0  0  0  0  0  0
+          0  0  0  0  0  0  0  0  0  0  0  0  0  0  0  0  0
++         0  0  0  0  0  0  0  0  0  0  0  0  0  0  0  0  0
++         0  0  0  0  0  0  0  0  0  0  0  0  0  0  0  0  0
++         0  0  0  0  0  0  0  0  0  0  0  0  0  0  0  0  0
++         0  0  0  0  0  0  0  0  0  0  0  0  0  0  0  0  0
++         0  0  0  0  0  0  0  0  0  0  0  0  0  0  0  0  0
%c cc cc ccc ccc cccc cccc cccc cccc ccccc ccccc ccccc ccccc
%c cc cc ccc ccc cccc cccc cccc cccc ccccc ccccc ccccc ccccc
%f  0.0000000  0.000000000  0.00000000000  0.000000000000000
%f  0.0000000  0.000000000  0.00000000000  0.000000000000000
%i    0    0    0    0      0      0      0      0         0
%i    0    0    0    0      0      0      0      0         0
/*      NGA, ST. LOUIS,MO.                                  
/*   EPHEMERIS COMPUTED FROM  3 DAYS OF DATA                
/* CCCCCCCCCCCCCCCCCCCCCCCCCCCCCCCCCCCCCCCCCCCCCCCCCCCCCCCCC
/* CCCCCCCCCCCCCCCCCCCCCCCCCCCCCCCCCCCCCCCCCCCCCCCCCCCCCCCCC
*  2009  7 23 15 30   .00000000                                                 
P  1  15812.877140  -4798.894674  20676.534938    -63.523138                    
V  1  -4764.247882  26076.743742   9754.096784       .028672                    
P  2   9309.350624  21279.289159  13174.584216    161.376547                    
V  2 -14102.655511  -9359.678096  24511.291883       .018547                    
P  3  -6912.332710 -14548.088920 -21441.337976    423.922457                    
V  3  24388.781814 -10675.336883   -269.056723       .050711                    
P  4  -2442.535120  17389.735251  19689.824010   -187.524771                    
V  4 -19696.690394 -16230.522988  12173.444908      -.165838                    
P  6  -1280.472770 -16017.874848 -20950.523571    200.433136                    
V  6  25740.891447  -8671.885352   5087.002358       .103456                    
P  7 -19441.267130   -945.188683 -18155.555211     14.720760                    
V  7 -15915.474069 -16575.972903  17796.283215      -.007258                    
P  8 -10687.227299   9971.466794 -22222.705216   -213.260906                    
V  8 -19526.458807 -20102.017587   -122.193900      -.017965                    
P  9  21290.206382  15441.682675   3299.432782     68.077766                    
V  9   2279.984597   5006.519733 -31696.691882       .019359                    
P 10   2960.617139  23339.394285 -12154.835672    -19.758325                    
V 10  -6269.693604  14213.981250  26444.552388      -.007498                    
P 11 -24227.275951 -10624.315536   3751.491453    -11.849306                    
V 11  -1980.710194  -6573.134345 -29362.805893      -.016415                    
P 12  13233.423984   8451.516475  21499.166943   -246.010027                    
V 12  -6558.463714  26312.374352  -6201.303825       .060669                    
P 13 -25868.902219   6006.348471    599.030182    301.930250                    
V 13    476.263420  -1891.487904  32471.920277       .006465                    
P 14  17381.606353 -14302.790781  14117.683983    -75.768589                    
V 14  17512.320112  -3105.838105 -25044.853379       .055596                    
P 15  14092.527516  10256.955576 -20035.789840   -310.193018                    
V 15 -23873.663501   8996.642236 -12108.683026      -.023529                    
P 16   1352.138520 -25418.762703  -7068.212832     30.044542                    
V 16   4751.855042  -8189.113892  30376.843195      -.036556                    
P 17 -17750.512476  14719.967056  13079.929546     72.315530                    
V 17 -16575.075061   2344.620860 -25460.213530       .025347                    
P 18  15860.629084 -12394.647265 -16893.948594    -37.630292                    
V 18  -3172.083477  22018.350148 -19248.217185       .031012                    
P 19 -15823.162081  -9978.144265 -18896.624939     17.988213                    
V 19  23117.857635  -6714.287925 -15503.854003      -.014521                    
P 20 -14390.813901  -6694.473002  21174.877462     76.593322                    
V 20   5792.625200 -26629.669638  -4418.645435      -.009821                    
P 21  18590.500803  -1543.571622 -18849.798498      1.078872                    
V 21  16655.370820  17904.446227  14116.552939      -.022186                    
P 22  11930.574116 -22197.278341  -8096.719479    194.909244                    
V 22    556.381366  11055.861171 -28991.925220      -.008295                    
P 23 -23310.097688  -2051.946689  12798.861185    389.940501                    
V 23  14949.974167  -6494.054811  25803.446331      -.001892                    
P 24  21467.214246  10351.176504 -11322.396266    206.644879                    
V 24   8190.881623  12537.918422  26934.793136       .029227                    
P 25 -22361.356183  -6489.513174 -12257.417564    521.381889                    
V 25 -11442.469875 -11649.469489  26502.786561       .170017                    
P 26  26276.027231  -5381.816375  -1777.667441     64.774053                    
V 26  -1170.174302   1673.597822 -32002.540067       .000318                    
P 27  20139.420320  17252.460768   -790.190225     68.046366                    
V 27  -2938.164589    693.123815 -32045.285262       .032375                    
P 28 -12620.479333  20589.168650 -10254.317176    -26.024373                    
V 28    878.866903 -13985.375047 -28290.702421      -.000692                    
P 29  25879.125197  -4924.554009   3296.530412     42.078618                    
V 29  -3139.352801   3838.234277  31403.444299       .034265                    
P 30  15653.603027  -3709.150530  20743.237680    163.173122                    
V 30  -4025.442828  26971.050752   7799.777540       .029024                    
P 31    -64.671227 -18146.569722  19549.210701    -64.142119                    
V 31  18726.227310  15679.654512  14908.035493      -.004493                    
P 32  -9788.241197 -15112.886433  20001.450785    227.302077                    
V 32   8289.449010 -23033.540030 -13352.973692      -.062171                    
EOF
